H1 CPF  1  HTS 2022  5 29 12  6491 larets           NONE
H2  0304206 5557    27944 2022 05 29  0  0  0 2022 06 03  0  0  0   180 1 1  0 0 0
H5  0.0560 
H9 
10 0 59729  59400.00000  0    4908764.599   -2804115.977    4239174.301
10 0 59729  59580.00000  0    5345885.673   -3425813.945    3105741.420
10 0 59729  59760.00000  0    5574186.833   -3931911.145    1858771.799
10 0 59729  59940.00000  0    5588729.071   -4298490.938     543848.610
10 0 59729  60120.00000  0    5392933.774   -4506713.163    -790955.584
10 0 59729  60300.00000  0    4998315.677   -4543723.856   -2096866.640
10 0 59729  60480.00000  0    4423881.797   -4403320.021   -3326224.322
10 0 59729  60660.00000  0    3695229.804   -4086337.076   -4434242.136
10 0 59729  60840.00000  0    2843396.647   -3600742.584   -5380637.769
10 0 59729  61020.00000  0    1903519.082   -2961437.525   -6131069.263
10 0 59729  61200.00000  0     913377.557   -2189784.395   -6658332.159
10 0 59729  61380.00000  0     -88117.465   -1312882.219   -6943297.487
10 0 59729  61560.00000  0   -1062438.808    -362612.893   -6975561.350
10 0 59729  61740.00000  0   -1972899.776     625501.373   -6753802.285
10 0 59729  61920.00000  0   -2786016.467    1613598.508   -6285845.283
10 0 59729  62100.00000  0   -3472732.415    2562900.499   -5588429.929
10 0 59729  62280.00000  0   -4009474.309    3435222.571   -4686681.909
10 0 59729  62460.00000  0   -4379002.597    4194519.439   -3613277.865
10 0 59729  62640.00000  0   -4571010.334    4808403.173   -2407313.365
10 0 59729  62820.00000  0   -4582442.163    5249564.294   -1112905.397
10 0 59729  63000.00000  0   -4417513.795    5497024.603     222432.114
10 0 59729  63180.00000  0   -4087416.130    5537148.587    1549581.103
10 0 59729  63360.00000  0   -3609714.992    5364350.394    2819696.736
10 0 59729  63540.00000  0   -3007472.037    4981450.525    3986078.844
10 0 59729  63720.00000  0   -2308139.619    4399668.544    5005937.413
10 0 59729  63900.00000  0   -1542297.485    3638260.349    5841981.834
10 0 59729  64080.00000  0    -742296.583    2723821.024    6463771.785
10 0 59729  64260.00000  0      59120.315    1689295.568    6848782.805
10 0 59729  64440.00000  0     830158.627     572750.440    6983168.750
10 0 59729  64620.00000  0    1541226.426    -584047.334    6862211.653
10 0 59729  64800.00000  0    2166059.189   -1737193.399    6490458.971
10 0 59729  64980.00000  0    2682681.785   -2842306.322    5881549.619
10 0 59729  65160.00000  0    3074180.296   -3856232.093    5057731.665
10 0 59729  65340.00000  0    3329256.840   -4738734.399    4049078.799
10 0 59729  65520.00000  0    3442550.410   -5454109.732    2892422.887
10 0 59729  65700.00000  0    3414708.172   -5972659.087    1630026.087
10 0 59729  65880.00000  0    3252200.841   -6271946.592     308035.596
10 0 59729  66060.00000  0    2966892.573   -6337781.374   -1025219.523
10 0 59729  66240.00000  0    2575383.780   -6164875.372   -2321027.360
10 0 59729  66420.00000  0    2098155.877   -5757133.091   -3532105.881
10 0 59729  66600.00000  0    1558565.005   -5127564.183   -4614349.331
10 0 59729  66780.00000  0     981739.970   -4297821.865   -5528427.569
10 0 59729  66960.00000  0     393446.826   -3297408.391   -6241181.760
10 0 59729  67140.00000  0    -181032.405   -2162588.470   -6726778.319
10 0 59729  67320.00000  0    -717959.219    -935058.550   -6967592.062
10 0 59729  67500.00000  0   -1196095.178     339577.282   -6954805.950
10 0 59729  67680.00000  0   -1597525.857    1613475.183   -6688717.964
10 0 59729  67860.00000  0   -1908327.218    2838313.292   -6178753.279
10 0 59729  68040.00000  0   -2119054.519    3967102.477   -5443182.245
10 0 59729  68220.00000  0   -2225038.998    4955995.440   -4508536.218
10 0 59729  68400.00000  0   -2226479.234    5766029.303   -3408717.982
10 0 59729  68580.00000  0   -2128316.410    6364723.434   -2183818.658
10 0 59729  68760.00000  0   -1939894.655    6727459.525    -878676.009
10 0 59729  68940.00000  0   -1674420.437    6838568.419     458784.116
10 0 59729  69120.00000  0   -1348243.006    6692062.854    1779357.327
10 0 59729  69300.00000  0    -979989.462    6291953.580    3034449.890
10 0 59729  69480.00000  0    -589603.361    5652125.724    4177932.555
10 0 59729  69660.00000  0    -197344.808    4795805.188    5167879.122
10 0 59729  69840.00000  0     177199.798    3754634.307    5968121.103
10 0 59729  70020.00000  0     516046.188    2567421.773    6549545.417
10 0 59729  70200.00000  0     803632.551    1278631.643    6891111.334
10 0 59729  70380.00000  0    1027501.171     -63322.834    6980558.731
10 0 59729  70560.00000  0    1178816.742   -1407910.030    6814802.144
10 0 59729  70740.00000  0    1252704.955   -2704378.720    6400015.005
10 0 59729  70920.00000  0    1248401.636   -3903668.359    5751399.592
10 0 59729  71100.00000  0    1169208.091   -4960265.113    4892644.931
10 0 59729  71280.00000  0    1022260.108   -5833937.715    3855092.814
10 0 59729  71460.00000  0     818118.860   -6491303.454    2676627.459
10 0 59729  71640.00000  0     570197.166   -6907149.002    1400307.748
10 0 59729  71820.00000  0     294045.608   -7065442.735      72793.525
10 0 59729  72000.00000  0       6533.102   -6959989.413   -1257384.459
10 0 59729  72180.00000  0    -275036.048   -6594674.307   -2541637.617
10 0 59729  72360.00000  0    -533817.975   -5983293.036   -3733121.983
10 0 59729  72540.00000  0    -754295.358   -5148985.410   -4788460.594
10 0 59729  72720.00000  0    -923070.431   -4123300.181   -5669312.725
10 0 59729  72900.00000  0   -1029546.194   -2944949.524   -6343730.652
10 0 59729  73080.00000  0   -1066466.087   -1658314.397   -6787268.595
10 0 59729  73260.00000  0   -1030292.448    -311764.555   -6983816.447
10 0 59729  73440.00000  0    -921411.129    1044142.924   -6926147.037
10 0 59729  73620.00000  0    -744153.422    2358528.945   -6616171.153
10 0 59729  73800.00000  0    -506635.893    3582069.623   -6064900.135
10 0 59729  73980.00000  0    -220419.487    4668838.602   -5292111.833
10 0 59729  74160.00000  0     100004.356    5578054.036   -4325710.811
10 0 59729  74340.00000  0     437882.285    6275666.939   -3200786.988
10 0 59729  74520.00000  0     774999.031    6735718.827   -1958384.752
10 0 59729  74700.00000  0    1092574.836    6941399.733    -644016.009
10 0 59729  74880.00000  0    1372217.259    6885742.593     694035.418
10 0 59729  75060.00000  0    1596875.974    6571902.629    2006545.274
10 0 59729  75240.00000  0    1751744.626    6013004.619    3245226.358
10 0 59729  75420.00000  0    1825063.824    5231570.083    4364566.807
10 0 59729  75600.00000  0    1808782.362    4258550.173    5323547.793
10 0 59729  75780.00000  0    1699040.162    3132015.893    6087157.990
10 0 59729  75960.00000  0    1496453.196    1895594.989    6627641.967
10 0 59729  76140.00000  0    1206193.853     596730.595    6925464.417
10 0 59729  76320.00000  0     837864.176    -715167.294    6969961.404
10 0 59729  76500.00000  0     405169.620   -1990602.240    6759681.799
10 0 59729  76680.00000  0     -74597.768   -3181853.434    6302415.664
10 0 59729  76860.00000  0    -581248.024   -4244755.484    5614903.302
10 0 59729  77040.00000  0   -1092524.579   -5140330.959    4722240.410
10 0 59729  77220.00000  0   -1585055.906   -5836238.590    3657004.008
10 0 59729  77400.00000  0   -2035395.073   -6307983.950    2458093.104
10 0 59729  77580.00000  0   -2421098.386   -6539823.799    1169319.351
10 0 59729  77760.00000  0   -2721791.457   -6525323.784    -162202.135
10 0 59729  77940.00000  0   -2920165.662   -6267538.810   -1487801.120
10 0 59729  78120.00000  0   -3002856.357   -5778804.252   -2759064.461
10 0 59729  78300.00000  0   -2961158.612   -5080147.580   -3929633.695
10 0 59729  78480.00000  0   -2791541.417   -4200351.481   -4956907.429
10 0 59729  78660.00000  0   -2495937.937   -3174726.910   -5803574.767
10 0 59729  78840.00000  0   -2081805.845   -2043663.845   -6438931.834
10 0 59729  79020.00000  0   -1561955.326    -851023.984   -6839945.686
10 0 59729  79200.00000  0    -954154.029     357556.958   -6992036.839
10 0 59729  79380.00000  0    -280528.182    1536391.252   -6889573.026
10 0 59729  79560.00000  0     433225.004    2641434.617   -6536075.057
10 0 59729  79740.00000  0    1158793.093    3631912.340   -5944131.057
10 0 59729  79920.00000  0    1866351.361    4471829.803   -5135006.683
10 0 59729  80100.00000  0    2525773.733    5131312.575   -4137951.084
10 0 59729  80280.00000  0    3107910.669    5587729.093   -2989202.483
10 0 59729  80460.00000  0    3585880.157    5826539.745   -1730709.712
10 0 59729  80640.00000  0    3936312.221    5841825.139    -408603.525
10 0 59729  80820.00000  0    4140476.405    5636455.370     928529.088
10 0 59729  81000.00000  0    4185228.595    5221881.142    2231489.989
10 0 59729  81180.00000  0    4063725.287    4617558.165    3452346.467
10 0 59729  81360.00000  0    3775863.846    3850032.139    4546258.454
10 0 59729  81540.00000  0    3328427.029    2951735.043    5473160.512
10 0 59729  81720.00000  0    2734925.656    1959566.213    6199235.989
10 0 59729  81900.00000  0    2015157.894     913330.172    6698117.825
10 0 59729  82080.00000  0    1194514.066    -145888.154    6951795.529
10 0 59729  82260.00000  0     303054.203   -1177341.531    6951214.245
10 0 59729  82440.00000  0    -625606.056   -2142184.054    6696561.854
10 0 59729  82620.00000  0   -1555565.099   -3004926.402    6197235.398
10 0 59729  82800.00000  0   -2450011.628   -3734732.101    5471496.068
10 0 59729  82980.00000  0   -3272671.591   -4306522.788    4545833.977
10 0 59729  83160.00000  0   -3989286.467   -4701857.846    3454036.612
10 0 59729  83340.00000  0   -4569048.011   -4909546.252    2235978.270
10 0 59729  83520.00000  0   -4985928.151   -4925967.720     936174.533
10 0 59729  83700.00000  0   -5219845.463   -4755083.097    -397854.676
99
